SENTINEL-6              
1 46984U 20086A   23190.46329872 -.00000048  00000+0  56223-4 0  9997
2 46984  66.0384 205.1880 0008104 269.2982  90.7105 12.80930299122937
